EUTELSAT QUANTUM        
1 49056U 21069B   26015.45361880  .00000144  00000+0  00000+0 0  9998
2 49056   0.0098  26.4602 0003318 275.0627  24.3862  1.00273716 16398
EUTELSAT KONNECT VHTS   
1 53765U 22110A   26015.80138593  .00000035  00000+0  00000+0 0  9999
2 53765   0.0569  97.6705 0002660 173.3280 135.4798  1.00270024  5301
EUTELSAT HOTBIRD 13F    
1 54048U 22134A   26014.94747034  .00000106  00000+0  00000+0 0  9999
2 54048   0.0592 284.1364 0002060  81.6599 102.6764  1.00272138 11847
EUTELSAT HOTBIRD 13G    
1 54225U 22146A   26014.94747034  .00000106  00000+0  00000+0 0  9999
2 54225   0.0618 228.1206 0002032 307.9549 292.4053  1.00271967  5935
EUTELSAT 10B            
1 54259U 22157A   26015.80277262  .00000086  00000+0  00000+0 0  9992
2 54259   0.0590  95.0353 0000860 356.3393 322.8290  1.00271982 11493
